{
  "type": "FeatureCollection",
  "features": [
    {
      "type": "Feature",
      "properties": {
        "norad_id": 30805,
        "name": "FENGYUN 1C DEB",
        "group": "fengyun-1c-debris",
        "lat": 46.72972703025827,
        "lon": -139.656115705253,
        "alt_km": 922.2388643651939,
        "timestamp": "2025-12-14T05:42:18.739083+00:00",
        "meta_object_name": "FENGYUN 1C DEB",
        "meta_object_id": "1999-025AUP",
        "meta_epoch": "2025-12-13T15:58:39.947232",
        "meta_mean_motion": 14.02897264,
        "meta_eccentricity": 0.00698507,
        "meta_inclination": 98.8205,
        "meta_ra_of_asc_node": 30.2959,
        "meta_arg_of_pericenter": 281.445,
        "meta_mean_anomaly": 204.3174,
        "meta_ephemeris_type": 0,
        "meta_classification_type": "U",
        "meta_norad_cat_id": 30805,
        "meta_element_set_no": 999,
        "meta_rev_at_epoch": 95973,
        "meta_bstar": 0.0010362234,
        "meta_mean_motion_dot": 1.598e-05,
        "meta_mean_motion_ddot": 0,
        "tle_line1": "1 30805U 99025AUP 25347.66574013  .00001598  00000+0  10362-2 0  9990",
        "tle_line2": "2 30805  98.8205  30.2959 0069850 281.4450 204.3174 14.02897264959737"
      },
      "geometry": {
        "type": "Point",
        "coordinates": [
          -139.656115705253,
          46.72972703025827
        ]
      }
    },
    {
      "type": "Feature",
      "properties": {
        "norad_id": 30806,
        "name": "FENGYUN 1C DEB",
        "group": "fengyun-1c-debris",
        "lat": -28.50867657266969,
        "lon": 19.642597598009942,
        "alt_km": 1182.6761316682805,
        "timestamp": "2025-12-14T05:42:18.739093+00:00",
        "meta_object_name": "FENGYUN 1C DEB",
        "meta_object_id": "1999-025AUQ",
        "meta_epoch": "2025-12-13T07:22:05.079936",
        "meta_mean_motion": 13.70419224,
        "meta_eccentricity": 0.02684704,
        "meta_inclination": 99.0364,
        "meta_ra_of_asc_node": 13.8085,
        "meta_arg_of_pericenter": 128.8784,
        "meta_mean_anomaly": 294.3964,
        "meta_ephemeris_type": 0,
        "meta_classification_type": "U",
        "meta_norad_cat_id": 30806,
        "meta_element_set_no": 999,
        "meta_rev_at_epoch": 93703,
        "meta_bstar": 0.0010415081,
        "meta_mean_motion_dot": 1.149e-05,
        "meta_mean_motion_ddot": 0,
        "tle_line1": "1 30806U 99025AUQ 25347.30700324  .00001149  00000+0  10415-2 0  9999",
        "tle_line2": "2 30806  99.0364  13.8085 0268470 128.8784 294.3964 13.70419224937032"
      },
      "geometry": {
        "type": "Point",
        "coordinates": [
          19.642597598009942,
          -28.50867657266969
        ]
      }
    },
    {
      "type": "Feature",
      "properties": {
        "norad_id": 30809,
        "name": "FENGYUN 1C DEB",
        "group": "fengyun-1c-debris",
        "lat": 77.28190907056872,
        "lon": -59.43403463644352,
        "alt_km": 772.9088834820723,
        "timestamp": "2025-12-14T05:42:18.739104+00:00",
        "meta_object_name": "FENGYUN 1C DEB",
        "meta_object_id": "1999-025AUT",
        "meta_epoch": "2025-12-13T12:26:20.541984",
        "meta_mean_motion": 14.2924017,
        "meta_eccentricity": 0.00524085,
        "meta_inclination": 98.7889,
        "meta_ra_of_asc_node": 76.5666,
        "meta_arg_of_pericenter": 169.6453,
        "meta_mean_anomaly": 190.5821,
        "meta_ephemeris_type": 0,
        "meta_classification_type": "U",
        "meta_norad_cat_id": 30809,
        "meta_element_set_no": 999,
        "meta_rev_at_epoch": 97098,
        "meta_bstar": 0.0022779305,
        "meta_mean_motion_dot": 5.835e-05,
        "meta_mean_motion_ddot": 0,
        "tle_line1": "1 30809U 99025AUT 25347.51829331  .00005835  00000+0  22779-2 0  9997",
        "tle_line2": "2 30809  98.7889  76.5666 0052408 169.6453 190.5821 14.29240170970989"
      },
      "geometry": {
        "type": "Point",
        "coordinates": [
          -59.43403463644352,
          77.28190907056872
        ]
      }
    },
    {
      "type": "Feature",
      "properties": {
        "norad_id": 30810,
        "name": "FENGYUN 1C DEB",
        "group": "fengyun-1c-debris",
        "lat": -9.415263461854286,
        "lon": 161.5608965903625,
        "alt_km": 817.089978293362,
        "timestamp": "2025-12-14T05:42:18.739116+00:00",
        "meta_object_name": "FENGYUN 1C DEB",
        "meta_object_id": "1999-025AUU",
        "meta_epoch": "2025-12-13T04:05:50.975232",
        "meta_mean_motion": 14.0415354,
        "meta_eccentricity": 0.01797638,
        "meta_inclination": 98.663,
        "meta_ra_of_asc_node": 159.0942,
        "meta_arg_of_pericenter": 53.9199,
        "meta_mean_anomaly": 307.8468,
        "meta_ephemeris_type": 0,
        "meta_classification_type": "U",
        "meta_norad_cat_id": 30810,
        "meta_element_set_no": 999,
        "meta_rev_at_epoch": 94389,
        "meta_bstar": 0.003967433,
        "meta_mean_motion_dot": 7.228e-05,
        "meta_mean_motion_ddot": 0,
        "tle_line1": "1 30810U 99025AUU 25347.17072888  .00007228  00000+0  39674-2 0  9998",
        "tle_line2": "2 30810  98.6630 159.0942 0179763  53.9199 307.8468 14.04153540943891"
      },
      "geometry": {
        "type": "Point",
        "coordinates": [
          161.5608965903625,
          -9.415263461854286
        ]
      }
    },
    {
      "type": "Feature",
      "properties": {
        "norad_id": 30811,
        "name": "FENGYUN 1C DEB",
        "group": "fengyun-1c-debris",
        "lat": 49.47752601284801,
        "lon": 17.03045702754665,
        "alt_km": 820.0294506035716,
        "timestamp": "2025-12-14T05:42:18.739126+00:00",
        "meta_object_name": "FENGYUN 1C DEB",
        "meta_object_id": "1999-025AUV",
        "meta_epoch": "2025-12-11T01:39:11.047104",
        "meta_mean_motion": 13.61834436,
        "meta_eccentricity": 0.02784933,
        "meta_inclination": 98.7829,
        "meta_ra_of_asc_node": 24.594,
        "meta_arg_of_pericenter": 50.5758,
        "meta_mean_anomaly": 311.9684,
        "meta_ephemeris_type": 0,
        "meta_classification_type": "U",
        "meta_norad_cat_id": 30811,
        "meta_element_set_no": 999,
        "meta_rev_at_epoch": 92844,
        "meta_bstar": 0.0021907005,
        "meta_mean_motion_dot": 2.145e-05,
        "meta_mean_motion_ddot": 0,
        "tle_line1": "1 30811U 99025AUV 25345.06887786  .00002145  00000+0  21907-2 0  9999",
        "tle_line2": "2 30811  98.7829  24.5940 0278493  50.5758 311.9684 13.61834436928443"
      },
      "geometry": {
        "type": "Point",
        "coordinates": [
          17.03045702754665,
          49.47752601284801
        ]
      }
    },
    {
      "type": "Feature",
      "properties": {
        "norad_id": 30814,
        "name": "FENGYUN 1C DEB",
        "group": "fengyun-1c-debris",
        "lat": -80.16832523647561,
        "lon": 32.15526091727439,
        "alt_km": 683.9044536694319,
        "timestamp": "2025-12-14T05:42:18.739136+00:00",
        "meta_object_name": "FENGYUN 1C DEB",
        "meta_object_id": "1999-025AUY",
        "meta_epoch": "2025-12-13T15:33:25.274880",
        "meta_mean_motion": 14.60471719,
        "meta_eccentricity": 0.00303419,
        "meta_inclination": 99.0824,
        "meta_ra_of_asc_node": 324.1328,
        "meta_arg_of_pericenter": 229.8206,
        "meta_mean_anomaly": 186.0268,
        "meta_ephemeris_type": 0,
        "meta_classification_type": "U",
        "meta_norad_cat_id": 30814,
        "meta_element_set_no": 999,
        "meta_rev_at_epoch": 97755,
        "meta_bstar": 0.0029779731,
        "meta_mean_motion_dot": 0.00014504,
        "meta_mean_motion_ddot": 0,
        "tle_line1": "1 30814U 99025AUY 25347.64820920  .00014504  00000+0  29780-2 0  9994",
        "tle_line2": "2 30814  99.0824 324.1328 0030341 229.8206 186.0268 14.60471719977557"
      },
      "geometry": {
        "type": "Point",
        "coordinates": [
          32.15526091727439,
          -80.16832523647561
        ]
      }
    },
    {
      "type": "Feature",
      "properties": {
        "norad_id": 30815,
        "name": "FENGYUN 1C DEB",
        "group": "fengyun-1c-debris",
        "lat": 7.654384099301009,
        "lon": 143.10050787639332,
        "alt_km": 651.5114310870831,
        "timestamp": "2025-12-14T05:42:18.739147+00:00",
        "meta_object_name": "FENGYUN 1C DEB",
        "meta_object_id": "1999-025AUZ",
        "meta_epoch": "2025-12-11T21:20:43.639008",
        "meta_mean_motion": 14.7349611,
        "meta_eccentricity": 0.0002498,
        "meta_inclination": 99.3017,
        "meta_ra_of_asc_node": 141.6736,
        "meta_arg_of_pericenter": 278.1039,
        "meta_mean_anomaly": 239.3721,
        "meta_ephemeris_type": 0,
        "meta_classification_type": "U",
        "meta_norad_cat_id": 30815,
        "meta_element_set_no": 999,
        "meta_rev_at_epoch": 97767,
        "meta_bstar": 0.0056589,
        "meta_mean_motion_dot": 0.00036902,
        "meta_mean_motion_ddot": 0,
        "tle_line1": "1 30815U 99025AUZ 25345.88939397  .00036902  00000+0  56589-2 0  9991",
        "tle_line2": "2 30815  99.3017 141.6736 0002498 278.1039 239.3721 14.73496110977678"
      },
      "geometry": {
        "type": "Point",
        "coordinates": [
          143.10050787639332,
          7.654384099301009
        ]
      }
    }
  ]
}